{
  "norad_id": 66572,
  "name": "STARLINK-35870",
  "history": [
    {
      "epoch": "2026-03-28T16:48:20.608128",
      "apogee_km": 483.3406219908584,
      "perigee_km": 482.5546161368975,
      "latitude_deg": -39.89065006602861,
      "longitude_deg": -175.57710207998753,
      "semi_major_axis_km": 6861.084619063878,
      "eccentricity": 5.728e-05,
      "inclination_deg": 42.9968,
      "raan_deg": 240.008,
      "arg_perigee_deg": 247.2639,
      "mean_anomaly_deg": 112.8153,
      "mean_motion_rev_day": 15.2761389
    }
  ]
}